start=new Date('2021-11-15T00:00:00.000Z').valueOf();
sats=[{"SEMIMAJOR_AXIS":"6786.910","CENTER_NAME":"EARTH","GP_ID":"189748858","RA_OF_ASC_NODE":"18.7101","MEAN_MOTION_DOT":"0.01211947","OBJECT_ID":"2021-006H","MEAN_MOTION":"15.52725194","RCS_SIZE":"LARGE","EPHEMERIS_TYPE":"0","MEAN_MOTION_DDOT":"0.0000000000000","REF_FRAME":"TEME","SITE":"AFETR","TLE_LINE2":"2 47420  97.4972  18.7101 0001430 212.6063  82.6859 15.52725194 44875","APOAPSIS":"409.746","ARG_OF_PERICENTER":"212.6063","REV_AT_EPOCH":"4487","PERIOD":"92.740","LAUNCH_DATE":"2021-01-24","PERIAPSIS":"407.805","EPOCH":"2021-11-14T22:00:00.999936","DECAY_DATE":null,"FILE":"3215010","COUNTRY_CODE":"US","MEAN_ELEMENT_THEORY":"SGP4","ELEMENT_SET_NO":"999","MEAN_ANOMALY":"82.6859","INCLINATION":"97.4972","OBJECT_NAME":"STARLINK-2206","TLE_LINE1":"1 47420U 21006H   21318.91667824  .01211947  00000-0  17882-1 0  9996","TIME_SYSTEM":"UTC","ECCENTRICITY":"0.00014300","OBJECT_TYPE":"PAYLOAD","NORAD_CAT_ID":"47420","BSTAR":"0.01788200000000","CLASSIFICATION_TYPE":"U"},{"LAUNCH_DATE":"2021-01-24","PERIOD":"93.002","REV_AT_EPOCH":"4487","ARG_OF_PERICENTER":"212.0353","APOAPSIS":"422.601","TLE_LINE2":"2 47421  97.4971  18.6965 0001564 212.0353  50.6886 15.48355810 44870","SITE":"AFETR","REF_FRAME":"TEME","MEAN_MOTION_DDOT":"0.0000000000000","EPHEMERIS_TYPE":"0","RCS_SIZE":"LARGE","MEAN_MOTION":"15.48355810","OBJECT_ID":"2021-006J","RA_OF_ASC_NODE":"18.6965","MEAN_MOTION_DOT":"0.01215482","GP_ID":"189748625","CENTER_NAME":"EARTH","SEMIMAJOR_AXIS":"6799.673","CLASSIFICATION_TYPE":"U","BSTAR":"0.02089700000000","NORAD_CAT_ID":"47421","OBJECT_TYPE":"PAYLOAD","ECCENTRICITY":"0.00015640","TIME_SYSTEM":"UTC","TLE_LINE1":"1 47421U 21006J   21318.91667824  .01215482  00000-0  20897-1 0  9995","OBJECT_NAME":"STARLINK-2207","MEAN_ANOMALY":"50.6886","INCLINATION":"97.4971","ELEMENT_SET_NO":"999","COUNTRY_CODE":"US","MEAN_ELEMENT_THEORY":"SGP4","FILE":"3215007","DECAY_DATE":null,"EPOCH":"2021-11-14T22:00:00.999936","PERIAPSIS":"420.474"},{"SITE":"AFETR","APOAPSIS":"473.549","TLE_LINE2":"2 47422  97.4838  18.3542 0003680 254.2356 270.8409 15.31603889  3600","ARG_OF_PERICENTER":"254.2356","REV_AT_EPOCH":"360","PERIOD":"94.019","LAUNCH_DATE":"2021-01-24","SEMIMAJOR_AXIS":"6849.164","CENTER_NAME":"EARTH","GP_ID":"189773966","MEAN_MOTION_DOT":"0.00816492","RA_OF_ASC_NODE":"18.3542","OBJECT_ID":"2021-006K","MEAN_MOTION":"15.31603889","RCS_SIZE":"LARGE","EPHEMERIS_TYPE":"0","MEAN_MOTION_DDOT":"0.0000000000000","REF_FRAME":"TEME","INCLINATION":"97.4838","MEAN_ANOMALY":"270.8409","OBJECT_NAME":"STARLINK-2208","TLE_LINE1":"1 47422U 21006K   21318.91667824  .00816492  00000-0  24754-1 0  9999","TIME_SYSTEM":"UTC","ECCENTRICITY":"0.00036800","OBJECT_TYPE":"PAYLOAD","NORAD_CAT_ID":"47422","CLASSIFICATION_TYPE":"U","BSTAR":"0.02475400000000","PERIAPSIS":"468.508","EPOCH":"2021-11-14T22:00:00.999936","DECAY_DATE":null,"FILE":"3215179","MEAN_ELEMENT_THEORY":"SGP4","COUNTRY_CODE":"US","ELEMENT_SET_NO":"999"},{"SITE":"AFETR","TLE_LINE2":"2 47548  53.0563 248.4046 0001849  63.1454 296.9724 15.06399827 43337","APOAPSIS":"548.495","REV_AT_EPOCH":"4333","ARG_OF_PERICENTER":"63.1454","LAUNCH_DATE":"2021-02-04","PERIOD":"95.592","SEMIMAJOR_AXIS":"6925.349","RA_OF_ASC_NODE":"248.4046","MEAN_MOTION_DOT":"-0.00000077","GP_ID":"189747449","CENTER_NAME":"EARTH","EPHEMERIS_TYPE":"0","RCS_SIZE":"LARGE","OBJECT_ID":"2021-009A","MEAN_MOTION":"15.06399827","REF_FRAME":"TEME","MEAN_MOTION_DDOT":"0.0000000000000","OBJECT_NAME":"STARLINK-1782","MEAN_ANOMALY":"296.9724","INCLINATION":"53.0563","TLE_LINE1":"1 47548U 21009A   21318.27986105 -.00000077  00000-0  13720-4 0  9995","ECCENTRICITY":"0.00018490","OBJECT_TYPE":"PAYLOAD","TIME_SYSTEM":"UTC","BSTAR":"0.00001372000000","CLASSIFICATION_TYPE":"U","NORAD_CAT_ID":"47548","EPOCH":"2021-11-14T06:42:59.994720","PERIAPSIS":"545.934","COUNTRY_CODE":"US","MEAN_ELEMENT_THEORY":"SGP4","FILE":"3214995","DECAY_DATE":null,"ELEMENT_SET_NO":"999"},{"ELEMENT_SET_NO":"999","COUNTRY_CODE":"US","MEAN_ELEMENT_THEORY":"SGP4","FILE":"3215179","DECAY_DATE":null,"EPOCH":"2021-11-14T19:22:00.198336","PERIAPSIS":"545.958","CLASSIFICATION_TYPE":"U","BSTAR":"0.00012575000000","NORAD_CAT_ID":"47549","OBJECT_TYPE":"PAYLOAD","ECCENTRICITY":"0.00018360","TIME_SYSTEM":"UTC","TLE_LINE1":"1 47549U 21009B   21318.80694674  .00001592  00000-0  12575-3 0  9990","OBJECT_NAME":"STARLINK-1806","INCLINATION":"53.0553","MEAN_ANOMALY":"296.5910","REF_FRAME":"TEME","MEAN_MOTION_DDOT":"0.0000000000000","EPHEMERIS_TYPE":"0","RCS_SIZE":"LARGE","MEAN_MOTION":"15.06394645","OBJECT_ID":"2021-009B","MEAN_MOTION_DOT":"0.00001592","RA_OF_ASC_NODE":"246.0277","GP_ID":"189773732","CENTER_NAME":"EARTH","SEMIMAJOR_AXIS":"6925.365","LAUNCH_DATE":"2021-02-04","PERIOD":"95.592","REV_AT_EPOCH":"4341","ARG_OF_PERICENTER":"63.5267","APOAPSIS":"548.501","TLE_LINE2":"2 47549  53.0553 246.0277 0001836  63.5267 296.5910 15.06394645 43414","SITE":"AFETR"},{"TLE_LINE2":"2 47550  53.0559 235.6786 0001830  66.8476 293.2706 15.06396984 43564","APOAPSIS":"548.490","SITE":"AFETR","PERIOD":"95.592","LAUNCH_DATE":"2021-02-04","ARG_OF_PERICENTER":"66.8476","REV_AT_EPOCH":"4356","CENTER_NAME":"EARTH","GP_ID":"189773982","RA_OF_ASC_NODE":"235.6786","MEAN_MOTION_DOT":"0.00002819","SEMIMAJOR_AXIS":"6925.358","MEAN_MOTION_DDOT":"0.0000000000000","REF_FRAME":"TEME","MEAN_MOTION":"15.06396984","OBJECT_ID":"2021-009C","RCS_SIZE":"LARGE","EPHEMERIS_TYPE":"0","TLE_LINE1":"1 47550U 21009C   21318.88528038  .00002819  00000-0  20808-3 0  9991","MEAN_ANOMALY":"293.2706","INCLINATION":"53.0559","OBJECT_NAME":"STARLINK-1909","NORAD_CAT_ID":"47550","CLASSIFICATION_TYPE":"U","BSTAR":"0.00020808000000","TIME_SYSTEM":"UTC","ECCENTRICITY":"0.00018300","OBJECT_TYPE":"PAYLOAD","PERIAPSIS":"545.955","EPOCH":"2021-11-14T21:14:48.224832","ELEMENT_SET_NO":"999","DECAY_DATE":null,"FILE":"3215179","COUNTRY_CODE":"US","MEAN_ELEMENT_THEORY":"SGP4"},{"ELEMENT_SET_NO":"999","COUNTRY_CODE":"US","MEAN_ELEMENT_THEORY":"SGP4","FILE":"3214995","DECAY_DATE":null,"EPOCH":"2021-11-14T08:22:30.291744","PERIAPSIS":"546.108","CLASSIFICATION_TYPE":"U","BSTAR":"0.00000587330000","NORAD_CAT_ID":"47551","ECCENTRICITY":"0.00015560","OBJECT_TYPE":"PAYLOAD","TIME_SYSTEM":"UTC","TLE_LINE1":"1 47551U 21009D   21318.34896171 -.00000194  00000-0  58733-5 0  9994","OBJECT_NAME":"STARLINK-1938","INCLINATION":"53.0556","MEAN_ANOMALY":"292.4047","REF_FRAME":"TEME","MEAN_MOTION_DDOT":"0.0000000000000","EPHEMERIS_TYPE":"0","RCS_SIZE":"LARGE","MEAN_MOTION":"15.06409138","OBJECT_ID":"2021-009D","RA_OF_ASC_NODE":"258.0792","MEAN_MOTION_DOT":"-0.00000194","GP_ID":"189746700","CENTER_NAME":"EARTH","SEMIMAJOR_AXIS":"6925.321","LAUNCH_DATE":"2021-02-04","PERIOD":"95.592","REV_AT_EPOCH":"4320","ARG_OF_PERICENTER":"67.7107","APOAPSIS":"548.263","TLE_LINE2":"2 47551  53.0556 258.0792 0001556  67.7107 292.4047 15.06409138 43200","SITE":"AFETR"},{"NORAD_CAT_ID":"47552","BSTAR":"-0.00019665000000","CLASSIFICATION_TYPE":"U","TIME_SYSTEM":"UTC","ECCENTRICITY":"0.00017530","OBJECT_TYPE":"PAYLOAD","TLE_LINE1":"1 47552U 21009E   21318.88435003 -.00003210  00000-0 -19665-3 0  9999","INCLINATION":"53.0546","MEAN_ANOMALY":"299.3226","OBJECT_NAME":"STARLINK-1940","ELEMENT_SET_NO":"999","DECAY_DATE":null,"FILE":"3215179","MEAN_ELEMENT_THEORY":"SGP4","COUNTRY_CODE":"US","PERIAPSIS":"545.975","EPOCH":"2021-11-14T21:13:27.842592","PERIOD":"95.592","LAUNCH_DATE":"2021-02-04","ARG_OF_PERICENTER":"60.7938","REV_AT_EPOCH":"4342","APOAPSIS":"548.403","TLE_LINE2":"2 47552  53.0546 245.6889 0001753  60.7938 299.3226 15.06407981 43426","SITE":"AFETR","MEAN_MOTION_DDOT":"0.0000000000000","REF_FRAME":"TEME","MEAN_MOTION":"15.06407981","OBJECT_ID":"2021-009E","RCS_SIZE":"LARGE","EPHEMERIS_TYPE":"0","CENTER_NAME":"EARTH","GP_ID":"189774485","MEAN_MOTION_DOT":"-0.00003210","RA_OF_ASC_NODE":"245.6889","SEMIMAJOR_AXIS":"6925.324"},{"TLE_LINE1":"1 47553U 21009F   21318.27247768  .00000572  00000-0  57408-4 0  9996","OBJECT_NAME":"STARLINK-1951","MEAN_ANOMALY":"24.1978","INCLINATION":"53.0561","BSTAR":"0.00005740800000","CLASSIFICATION_TYPE":"U","NORAD_CAT_ID":"47553","ECCENTRICITY":"0.00064450","OBJECT_TYPE":"PAYLOAD","TIME_SYSTEM":"UTC","EPOCH":"2021-11-14T06:32:22.071552","PERIAPSIS":"542.776","ELEMENT_SET_NO":"999","MEAN_ELEMENT_THEORY":"SGP4","COUNTRY_CODE":"US","DECAY_DATE":null,"FILE":"3214995","APOAPSIS":"551.703","TLE_LINE2":"2 47553  53.0561 248.4405 0006445 335.8708  24.1978 15.06391636 43330","SITE":"AFETR","LAUNCH_DATE":"2021-02-04","PERIOD":"95.593","REV_AT_EPOCH":"4333","ARG_OF_PERICENTER":"335.8708","GP_ID":"189745699","MEAN_MOTION_DOT":"0.00000572","RA_OF_ASC_NODE":"248.4405","CENTER_NAME":"EARTH","SEMIMAJOR_AXIS":"6925.374","MEAN_MOTION_DDOT":"0.0000000000000","REF_FRAME":"TEME","EPHEMERIS_TYPE":"0","MEAN_MOTION":"15.06391636","OBJECT_ID":"2021-009F","RCS_SIZE":"LARGE"},{"SEMIMAJOR_AXIS":"6925.368","CENTER_NAME":"EARTH","GP_ID":"189773483","MEAN_MOTION_DOT":"0.00001772","RA_OF_ASC_NODE":"265.6531","MEAN_MOTION":"15.06393651","OBJECT_ID":"2021-009G","RCS_SIZE":"LARGE","EPHEMERIS_TYPE":"0","MEAN_MOTION_DDOT":"0.0000000000000","REF_FRAME":"TEME","SITE":"AFETR","TLE_LINE2":"2 47554  53.0561 265.6531 0004986  73.9929 286.1609 15.06393651 43144","APOAPSIS":"550.686","ARG_OF_PERICENTER":"73.9929","REV_AT_EPOCH":"4314","PERIOD":"95.593","LAUNCH_DATE":"2021-02-04","PERIAPSIS":"543.780","EPOCH":"2021-11-14T21:21:26.292960","DECAY_DATE":null,"FILE":"3215179","COUNTRY_CODE":"US","MEAN_ELEMENT_THEORY":"SGP4","ELEMENT_SET_NO":"999","INCLINATION":"53.0561","MEAN_ANOMALY":"286.1609","OBJECT_NAME":"STARLINK-1953","TLE_LINE1":"1 47554U 21009G   21318.88988765  .00001772  00000-0  13795-3 0  9996","TIME_SYSTEM":"UTC","OBJECT_TYPE":"PAYLOAD","ECCENTRICITY":"0.00049860","NORAD_CAT_ID":"47554","BSTAR":"0.00013795000000","CLASSIFICATION_TYPE":"U"}];
